OBJECT_NAME,OBJECT_ID,EPOCH,MEAN_MOTION,ECCENTRICITY,INCLINATION,RA_OF_ASC_NODE,ARG_OF_PERICENTER,MEAN_ANOMALY,EPHEMERIS_TYPE,CLASSIFICATION_TYPE,NORAD_CAT_ID,ELEMENT_SET_NO,REV_AT_EPOCH,BSTAR,MEAN_MOTION_DOT,MEAN_MOTION_DDOT
ONEWEB-0053,2020-008AC,2026-06-14T03:30:37.814400,13.10375498,.00021775,87.8837,36.8903,72.5333,287.6032,0,U,45157,999,30751,-.83524445E-3,-.279E-5,0
ONEWEB-0054,2020-008AD,2026-06-14T13:30:37.106208,13.10370134,.00018729,87.8841,36.7896,83.3235,276.8105,0,U,45158,999,30768,.15038675E-2,.538E-5,0
ONEWEB-0056,2020-008AE,2026-06-14T03:40:01.570944,13.10377972,.0002018,87.8845,36.8653,89.4778,270.6580,0,U,45159,999,30778,.18923037E-3,.79E-6,0
ONEWEB-0057,2020-008AF,2026-06-14T13:14:05.379360,13.10372993,.00021769,87.8838,36.7981,72.1361,288.0004,0,U,45160,999,30800,.198837E-2,.707E-5,0
ONEWEB-0058,2020-008AG,2026-06-14T03:45:11.057472,13.10375436,.00015939,87.8833,36.8831,82.0942,278.0366,0,U,45161,999,30802,.8264163E-3,.301E-5,0
ONEWEB-0059,2020-008AH,2026-06-14T03:40:24.037536,13.10375908,.00017308,87.8836,36.8827,77.2918,282.8403,0,U,45162,999,30792,.35125104E-3,.135E-5,0
ONEWEB-0062,2020-008AJ,2026-06-14T13:23:15.260928,13.10371841,.00014509,87.8841,36.7890,92.4895,267.6398,0,U,45163,999,30784,.19738245E-2,.702E-5,0
ONEWEB-0065,2020-008AK,2026-06-14T14:11:01.544640,13.10372352,.00021615,87.8839,36.7903,80.9186,279.2186,0,U,45164,999,30754,-.17877691E-2,-.611E-5,0
ONEWEB-0066,2020-020A,2026-06-14T13:15:43.702560,13.11416196,.00017137,87.8888,21.5958,80.5344,279.5978,0,U,45424,999,30233,-.13385942E-2,-.462E-5,0
ONEWEB-0067,2020-020B,2026-06-14T14:10:19.956864,13.11423418,.0001958,87.8910,21.5096,81.7872,278.3478,0,U,45425,999,30239,.15450322E-2,.56E-5,0
ONEWEB-0080,2020-020C,2026-06-14T14:09:40.384800,13.11417081,.00015802,87.8900,21.5843,92.4498,267.6811,0,U,45426,999,30236,.15913809E-2,.577E-5,0
ONEWEB-0090,2020-020D,2026-06-14T13:01:17.158944,13.11414521,.00017744,87.8897,21.5980,87.2644,272.8687,0,U,45427,999,30232,-.10230537E-2,-.35E-5,0
ONEWEB-0061,2020-020E,2026-06-14T13:47:17.073024,13.11419754,.000176,87.8895,21.5768,84.4317,275.7011,0,U,45428,999,30228,.68299144E-3,.255E-5,0
ONEWEB-0081,2020-020F,2026-06-14T13:20:36.778272,13.11417135,.00018411,87.8894,21.5913,78.6540,281.4794,0,U,45429,999,30239,-.1572776E-2,-.545E-5,0
ONEWEB-0069,2020-020G,2026-06-14T13:23:14.955936,13.11416237,.0001831,87.8894,21.5935,82.2967,277.8369,0,U,45430,999,30232,-.11616521E-2,-.399E-5,0
ONEWEB-0031,2020-020H,2026-06-14T14:14:21.280704,13.11417013,.00016659,87.8886,21.5915,89.8279,270.3040,0,U,45431,999,30231,.15330682E-2,.556E-5,0
ONEWEB-0027,2020-020J,2026-06-14T16:00:01.999584,13.17520927,.00019998,87.9117,6.3767,106.8077,193.6340,0,U,45432,999,519,-.48661216E-1,-.18806E-3,0
ONEWEB-0064,2020-020K,2026-06-14T14:11:55.004640,13.11415817,.00017771,87.8890,21.5835,90.8352,269.2979,0,U,45433,999,30234,.1610796E-2,.584E-5,0
ONEWEB-0018,2020-020L,2026-06-14T13:08:13.918848,13.11430594,.00015326,87.8890,21.5915,77.7169,282.4131,0,U,45434,999,30228,-.78322936E-2,-.2763E-4,0
ONEWEB-0083,2020-020M,2026-06-14T12:53:58.675488,13.11415232,.00017466,87.8895,21.5871,86.4167,273.7160,0,U,45435,999,30232,-.60409923E-3,-.201E-5,0
ONEWEB-0095,2020-020N,2026-06-14T12:41:47.365152,13.11419497,.00024515,87.8895,21.5974,94.8567,265.2841,0,U,45436,999,30232,.36117346E-3,.141E-5,0
ONEWEB-0092,2020-020P,2026-06-14T13:25:30.895968,13.11423780,.00021554,87.8898,21.5834,85.0502,275.0872,0,U,45437,999,30244,-.88399116E-3,-.301E-5,0
ONEWEB-0085,2020-020Q,2026-06-14T12:53:34.526688,13.11414098,.00018101,87.8888,21.5941,85.7365,274.3969,0,U,45438,999,30232,-.54348107E-3,-.18E-5,0
ONEWEB-0096,2020-020R,2026-06-14T12:56:13.273728,13.11421096,.00018802,87.8897,21.5896,88.0185,272.1158,0,U,45439,999,30231,-.82474413E-3,-.28E-5,0
ONEWEB-0037,2020-020S,2026-06-14T13:45:35.638560,13.11913909,.00018936,87.8908,21.5565,85.7468,274.3876,0,U,45440,999,30235,.4442361E-3,.171E-5,0
ONEWEB-0042,2020-020T,2026-06-14T12:41:22.613280,13.11413855,.00018046,87.8902,21.5878,81.1323,279.0009,0,U,45441,999,30231,.29698806E-3,.118E-5,0
ONEWEB-0098,2020-020U,2026-06-14T14:25:20.544672,13.11415626,.00017378,87.8893,21.5830,86.5892,273.5435,0,U,45442,999,30230,.1028552E-2,.377E-5,0
ONEWEB-0055,2020-020V,2026-06-14T13:54:38.739456,13.11418247,.00017472,87.8896,21.5861,86.9030,273.2298,0,U,45443,999,30227,.11660125E-2,.426E-5,0
ONEWEB-0093,2020-020W,2026-06-14T13:25:41.687328,13.11417923,.00019483,87.8898,21.5832,73.4801,286.6541,0,U,45444,999,30233,-.15404122E-2,-.533E-5,0
ONEWEB-0029,2020-020X,2026-06-14T14:04:46.668000,13.11420547,.000176,87.8885,21.5868,77.1693,282.9631,0,U,45445,999,30231,.17059965E-2,.617E-5,0
