ONEWEB-0053             
1 45157U 20008AC  26165.14627100 -.00000279  00000+0 -83524-3 0  9997
2 45157  87.8837  36.8903 0002177  72.5333 287.6032 13.10375498307519
ONEWEB-0054             
1 45158U 20008AD  26165.56292947  .00000538  00000+0  15039-2 0  9992
2 45158  87.8841  36.7896 0001872  83.3235 276.8105 13.10370134307688
ONEWEB-0056             
1 45159U 20008AE  26165.15279596  .00000079  00000+0  18923-3 0  9999
2 45159  87.8845  36.8653 0002018  89.4778 270.6580 13.10377972307784
ONEWEB-0057             
1 45160U 20008AF  26165.55145115  .00000707  00000+0  19884-2 0  9998
2 45160  87.8838  36.7981 0002176  72.1361 288.0004 13.10372993308001
ONEWEB-0058             
1 45161U 20008AG  26165.15637798  .00000301  00000+0  82642-3 0  9991
2 45161  87.8833  36.8831 0001593  82.0942 278.0366 13.10375436308026
ONEWEB-0059             
1 45162U 20008AH  26165.15305599  .00000135  00000+0  35125-3 0  9992
2 45162  87.8836  36.8827 0001730  77.2918 282.8403 13.10375908307924
ONEWEB-0062             
1 45163U 20008AJ  26165.55781552  .00000702  00000+0  19738-2 0  9995
2 45163  87.8841  36.7890 0001450  92.4895 267.6398 13.10371841307849
ONEWEB-0065             
1 45164U 20008AK  26165.59099010 -.00000611  00000+0 -17878-2 0  9995
2 45164  87.8839  36.7903 0002161  80.9186 279.2186 13.10372352307546
ONEWEB-0066             
1 45424U 20020A   26165.55258915 -.00000462  00000+0 -13386-2 0  9999
2 45424  87.8888  21.5958 0001713  80.5344 279.5978 13.11416196302335
ONEWEB-0067             
1 45425U 20020B   26165.59050876  .00000560  00000+0  15450-2 0  9991
2 45425  87.8910  21.5096 0001958  81.7872 278.3478 13.11423418302398
ONEWEB-0080             
1 45426U 20020C   26165.59005075  .00000577  00000+0  15914-2 0  9996
2 45426  87.8900  21.5843 0001580  92.4498 267.6811 13.11417081302360
ONEWEB-0090             
1 45427U 20020D   26165.54255971 -.00000350  00000+0 -10231-2 0  9992
2 45427  87.8897  21.5980 0001774  87.2644 272.8687 13.11414521302329
ONEWEB-0061             
1 45428U 20020E   26165.57450316  .00000255  00000+0  68299-3 0  9996
2 45428  87.8895  21.5768 0001760  84.4317 275.7011 13.11419754302284
ONEWEB-0081             
1 45429U 20020F   26165.55598123 -.00000545  00000+0 -15728-2 0  9996
2 45429  87.8894  21.5913 0001841  78.6540 281.4794 13.11417135302394
ONEWEB-0069             
1 45430U 20020G   26165.55781199 -.00000399  00000+0 -11617-2 0  9995
2 45430  87.8894  21.5935 0001831  82.2967 277.8369 13.11416237302325
ONEWEB-0031             
1 45431U 20020H   26165.59330186  .00000556  00000+0  15331-2 0  9996
2 45431  87.8886  21.5915 0001665  89.8279 270.3040 13.11417013302315
ONEWEB-0027             
1 45432U 20020J   26165.66668981 -.00018806  00000+0 -48661-1 0  9992
2 45432  87.9117   6.3767 0001999 106.8077 193.6340 13.17520927  5197
ONEWEB-0064             
1 45433U 20020K   26165.59160885  .00000584  00000+0  16108-2 0  9999
2 45433  87.8890  21.5835 0001777  90.8352 269.2979 13.11415817302342
ONEWEB-0018             
1 45434U 20020L   26165.54738332 -.00002763  00000+0 -78323-2 0  9993
2 45434  87.8890  21.5915 0001532  77.7169 282.4131 13.11430594302280
ONEWEB-0083             
1 45435U 20020M   26165.53748467 -.00000201  00000+0 -60410-3 0  9997
2 45435  87.8895  21.5871 0001746  86.4167 273.7160 13.11415232302321
ONEWEB-0095             
1 45436U 20020N   26165.52902043  .00000141  00000+0  36117-3 0  9997
2 45436  87.8895  21.5974 0002451  94.8567 265.2841 13.11419497302326
ONEWEB-0092             
1 45437U 20020P   26165.55938537 -.00000301  00000+0 -88399-3 0  9997
2 45437  87.8898  21.5834 0002155  85.0502 275.0872 13.11423780302443
ONEWEB-0085             
1 45438U 20020Q   26165.53720517 -.00000180  00000+0 -54348-3 0  9995
2 45438  87.8888  21.5941 0001810  85.7365 274.3969 13.11414098302321
ONEWEB-0096             
1 45439U 20020R   26165.53904252 -.00000280  00000+0 -82474-3 0  9998
2 45439  87.8897  21.5896 0001880  88.0185 272.1158 13.11421096302315
ONEWEB-0037             
1 45440U 20020S   26165.57332915  .00000171  00000+0  44424-3 0  9995
2 45440  87.8908  21.5565 0001893  85.7468 274.3876 13.11913909302359
ONEWEB-0042             
1 45441U 20020T   26165.52873395  .00000118  00000+0  29699-3 0  9991
2 45441  87.8902  21.5878 0001804  81.1323 279.0009 13.11413855302314
ONEWEB-0098             
1 45442U 20020U   26165.60093223  .00000377  00000+0  10286-2 0  9993
2 45442  87.8893  21.5830 0001737  86.5892 273.5435 13.11415626302306
ONEWEB-0055             
1 45443U 20020V   26165.57961504  .00000426  00000+0  11660-2 0  9998
2 45443  87.8896  21.5861 0001747  86.9030 273.2298 13.11418247302275
ONEWEB-0093             
1 45444U 20020W   26165.55951027 -.00000533  00000+0 -15404-2 0  9997
2 45444  87.8898  21.5832 0001948  73.4801 286.6541 13.11417923302332
ONEWEB-0029             
1 45445U 20020X   26165.58665125  .00000617  00000+0  17060-2 0  9993
2 45445  87.8885  21.5868 0001760  77.1693 282.9631 13.11420547302313
